KUIPER-00176            
1 65788U 25217AC  25311.74195413  .00074987  00000+0  19782-2 0  9990
2 65788  51.8731 233.4405 0007059 141.4016 218.7476 15.37784102  6661
KUIPER-00101            
1 65947U 25228A   25311.75941367  .00022556  00000+0  66362-3 0  9999
2 65947  51.8777 189.1050 0005761 218.0465 142.0115 15.34976389  5045
KUIPER-00113            
1 65948U 25228B   25311.75512120  .00044515  00000+0  12828-2 0  9997
2 65948  51.8777 189.0770 0006043 219.4966 140.5580 15.35274937  5049
KUIPER-00117            
1 65949U 25228C   25311.75581847  .00040832  00000+0  11801-2 0  9998
2 65949  51.8778 189.0812 0005888 219.7113 140.3442 15.35225039  5045
KUIPER-00121            
1 65950U 25228D   25311.83055448  .00031631  00000+0  93511-3 0  9998
2 65950  51.8789 188.8328 0005307 239.0726 120.9738 15.34638204  5053
KUIPER-00122            
1 65951U 25228E   25311.83336806 -.00000201  00000+0  55763-5 0  9998
2 65951  51.8819 189.0561 0007134 253.3339  12.7092 15.28421221  3678
KUIPER-00123            
1 65952U 25228F   25311.83336806 -.01081893  00000+0 -44811-1 0  9995
2 65952  51.8822 189.0388 0005139 245.6042   5.3331 15.26357712  1974
KUIPER-00124            
1 65953U 25228G   25311.83336656  .00028379  00000+0  84567-3 0  9990
2 65953  51.8780 188.8482 0005241 248.0330 112.0098 15.34443835  5051
