<?xml version="1.0" encoding="UTF-8"?>
<ndm xmlns:xsi="http://www.w3.org/2001/XMLSchema-instance" xsi:noNamespaceSchemaLocation="https://sanaregistry.org/r/ndmxml_unqualified/ndmxml-2.0.0-master-2.0.xsd">
<omm id="CCSDS_OMM_VERS" version="2.0">
<header><CREATION_DATE/><ORIGINATOR/></header><body><segment><metadata><OBJECT_NAME>KUIPER-00176</OBJECT_NAME><OBJECT_ID>2025-217AC</OBJECT_ID><CENTER_NAME>EARTH</CENTER_NAME><REF_FRAME>TEME</REF_FRAME><TIME_SYSTEM>UTC</TIME_SYSTEM><MEAN_ELEMENT_THEORY>SGP4</MEAN_ELEMENT_THEORY></metadata><data><meanElements><EPOCH>2025-11-07T17:48:24.836832</EPOCH><MEAN_MOTION>15.37784102</MEAN_MOTION><ECCENTRICITY>.0007059</ECCENTRICITY><INCLINATION>51.8731</INCLINATION><RA_OF_ASC_NODE>233.4405</RA_OF_ASC_NODE><ARG_OF_PERICENTER>141.4016</ARG_OF_PERICENTER><MEAN_ANOMALY>218.7476</MEAN_ANOMALY></meanElements><tleParameters><EPHEMERIS_TYPE>0</EPHEMERIS_TYPE><CLASSIFICATION_TYPE>U</CLASSIFICATION_TYPE><NORAD_CAT_ID>65788</NORAD_CAT_ID><ELEMENT_SET_NO>999</ELEMENT_SET_NO><REV_AT_EPOCH>666</REV_AT_EPOCH><BSTAR>.19782E-2</BSTAR><MEAN_MOTION_DOT>.74987E-3</MEAN_MOTION_DOT><MEAN_MOTION_DDOT>0</MEAN_MOTION_DDOT></tleParameters></data></segment></body></omm>
<omm id="CCSDS_OMM_VERS" version="2.0">
<header><CREATION_DATE/><ORIGINATOR/></header><body><segment><metadata><OBJECT_NAME>KUIPER-00101</OBJECT_NAME><OBJECT_ID>2025-228A</OBJECT_ID><CENTER_NAME>EARTH</CENTER_NAME><REF_FRAME>TEME</REF_FRAME><TIME_SYSTEM>UTC</TIME_SYSTEM><MEAN_ELEMENT_THEORY>SGP4</MEAN_ELEMENT_THEORY></metadata><data><meanElements><EPOCH>2025-11-07T18:13:33.341088</EPOCH><MEAN_MOTION>15.34976389</MEAN_MOTION><ECCENTRICITY>.0005761</ECCENTRICITY><INCLINATION>51.8777</INCLINATION><RA_OF_ASC_NODE>189.1050</RA_OF_ASC_NODE><ARG_OF_PERICENTER>218.0465</ARG_OF_PERICENTER><MEAN_ANOMALY>142.0115</MEAN_ANOMALY></meanElements><tleParameters><EPHEMERIS_TYPE>0</EPHEMERIS_TYPE><CLASSIFICATION_TYPE>U</CLASSIFICATION_TYPE><NORAD_CAT_ID>65947</NORAD_CAT_ID><ELEMENT_SET_NO>999</ELEMENT_SET_NO><REV_AT_EPOCH>504</REV_AT_EPOCH><BSTAR>.66362E-3</BSTAR><MEAN_MOTION_DOT>.22556E-3</MEAN_MOTION_DOT><MEAN_MOTION_DDOT>0</MEAN_MOTION_DDOT></tleParameters></data></segment></body></omm>
<omm id="CCSDS_OMM_VERS" version="2.0">
<header><CREATION_DATE/><ORIGINATOR/></header><body><segment><metadata><OBJECT_NAME>KUIPER-00113</OBJECT_NAME><OBJECT_ID>2025-228B</OBJECT_ID><CENTER_NAME>EARTH</CENTER_NAME><REF_FRAME>TEME</REF_FRAME><TIME_SYSTEM>UTC</TIME_SYSTEM><MEAN_ELEMENT_THEORY>SGP4</MEAN_ELEMENT_THEORY></metadata><data><meanElements><EPOCH>2025-11-07T18:07:22.471680</EPOCH><MEAN_MOTION>15.35274937</MEAN_MOTION><ECCENTRICITY>.0006043</ECCENTRICITY><INCLINATION>51.8777</INCLINATION><RA_OF_ASC_NODE>189.0770</RA_OF_ASC_NODE><ARG_OF_PERICENTER>219.4966</ARG_OF_PERICENTER><MEAN_ANOMALY>140.5580</MEAN_ANOMALY></meanElements><tleParameters><EPHEMERIS_TYPE>0</EPHEMERIS_TYPE><CLASSIFICATION_TYPE>U</CLASSIFICATION_TYPE><NORAD_CAT_ID>65948</NORAD_CAT_ID><ELEMENT_SET_NO>999</ELEMENT_SET_NO><REV_AT_EPOCH>504</REV_AT_EPOCH><BSTAR>.12828E-2</BSTAR><MEAN_MOTION_DOT>.44515E-3</MEAN_MOTION_DOT><MEAN_MOTION_DDOT>0</MEAN_MOTION_DDOT></tleParameters></data></segment></body></omm>
<omm id="CCSDS_OMM_VERS" version="2.0">
<header><CREATION_DATE/><ORIGINATOR/></header><body><segment><metadata><OBJECT_NAME>KUIPER-00117</OBJECT_NAME><OBJECT_ID>2025-228C</OBJECT_ID><CENTER_NAME>EARTH</CENTER_NAME><REF_FRAME>TEME</REF_FRAME><TIME_SYSTEM>UTC</TIME_SYSTEM><MEAN_ELEMENT_THEORY>SGP4</MEAN_ELEMENT_THEORY></metadata><data><meanElements><EPOCH>2025-11-07T18:08:22.715808</EPOCH><MEAN_MOTION>15.35225039</MEAN_MOTION><ECCENTRICITY>.0005888</ECCENTRICITY><INCLINATION>51.8778</INCLINATION><RA_OF_ASC_NODE>189.0812</RA_OF_ASC_NODE><ARG_OF_PERICENTER>219.7113</ARG_OF_PERICENTER><MEAN_ANOMALY>140.3442</MEAN_ANOMALY></meanElements><tleParameters><EPHEMERIS_TYPE>0</EPHEMERIS_TYPE><CLASSIFICATION_TYPE>U</CLASSIFICATION_TYPE><NORAD_CAT_ID>65949</NORAD_CAT_ID><ELEMENT_SET_NO>999</ELEMENT_SET_NO><REV_AT_EPOCH>504</REV_AT_EPOCH><BSTAR>.11801E-2</BSTAR><MEAN_MOTION_DOT>.40832E-3</MEAN_MOTION_DOT><MEAN_MOTION_DDOT>0</MEAN_MOTION_DDOT></tleParameters></data></segment></body></omm>
<omm id="CCSDS_OMM_VERS" version="2.0">
<header><CREATION_DATE/><ORIGINATOR/></header><body><segment><metadata><OBJECT_NAME>KUIPER-00121</OBJECT_NAME><OBJECT_ID>2025-228D</OBJECT_ID><CENTER_NAME>EARTH</CENTER_NAME><REF_FRAME>TEME</REF_FRAME><TIME_SYSTEM>UTC</TIME_SYSTEM><MEAN_ELEMENT_THEORY>SGP4</MEAN_ELEMENT_THEORY></metadata><data><meanElements><EPOCH>2025-11-07T19:55:59.907072</EPOCH><MEAN_MOTION>15.34638204</MEAN_MOTION><ECCENTRICITY>.0005307</ECCENTRICITY><INCLINATION>51.8789</INCLINATION><RA_OF_ASC_NODE>188.8328</RA_OF_ASC_NODE><ARG_OF_PERICENTER>239.0726</ARG_OF_PERICENTER><MEAN_ANOMALY>120.9738</MEAN_ANOMALY></meanElements><tleParameters><EPHEMERIS_TYPE>0</EPHEMERIS_TYPE><CLASSIFICATION_TYPE>U</CLASSIFICATION_TYPE><NORAD_CAT_ID>65950</NORAD_CAT_ID><ELEMENT_SET_NO>999</ELEMENT_SET_NO><REV_AT_EPOCH>505</REV_AT_EPOCH><BSTAR>.93511E-3</BSTAR><MEAN_MOTION_DOT>.31631E-3</MEAN_MOTION_DOT><MEAN_MOTION_DDOT>0</MEAN_MOTION_DDOT></tleParameters></data></segment></body></omm>
<omm id="CCSDS_OMM_VERS" version="2.0">
<header><CREATION_DATE/><ORIGINATOR/></header><body><segment><metadata><OBJECT_NAME>KUIPER-00122</OBJECT_NAME><OBJECT_ID>2025-228E</OBJECT_ID><CENTER_NAME>EARTH</CENTER_NAME><REF_FRAME>TEME</REF_FRAME><TIME_SYSTEM>UTC</TIME_SYSTEM><MEAN_ELEMENT_THEORY>SGP4</MEAN_ELEMENT_THEORY></metadata><data><meanElements><EPOCH>2025-11-07T20:00:03.000384</EPOCH><MEAN_MOTION>15.28421221</MEAN_MOTION><ECCENTRICITY>.0007134</ECCENTRICITY><INCLINATION>51.8819</INCLINATION><RA_OF_ASC_NODE>189.0561</RA_OF_ASC_NODE><ARG_OF_PERICENTER>253.3339</ARG_OF_PERICENTER><MEAN_ANOMALY>12.7092</MEAN_ANOMALY></meanElements><tleParameters><EPHEMERIS_TYPE>0</EPHEMERIS_TYPE><CLASSIFICATION_TYPE>U</CLASSIFICATION_TYPE><NORAD_CAT_ID>65951</NORAD_CAT_ID><ELEMENT_SET_NO>999</ELEMENT_SET_NO><REV_AT_EPOCH>367</REV_AT_EPOCH><BSTAR>.55763E-5</BSTAR><MEAN_MOTION_DOT>-.201E-5</MEAN_MOTION_DOT><MEAN_MOTION_DDOT>0</MEAN_MOTION_DDOT></tleParameters></data></segment></body></omm>
<omm id="CCSDS_OMM_VERS" version="2.0">
<header><CREATION_DATE/><ORIGINATOR/></header><body><segment><metadata><OBJECT_NAME>KUIPER-00123</OBJECT_NAME><OBJECT_ID>2025-228F</OBJECT_ID><CENTER_NAME>EARTH</CENTER_NAME><REF_FRAME>TEME</REF_FRAME><TIME_SYSTEM>UTC</TIME_SYSTEM><MEAN_ELEMENT_THEORY>SGP4</MEAN_ELEMENT_THEORY></metadata><data><meanElements><EPOCH>2025-11-07T20:00:03.000384</EPOCH><MEAN_MOTION>15.26357712</MEAN_MOTION><ECCENTRICITY>.0005139</ECCENTRICITY><INCLINATION>51.8822</INCLINATION><RA_OF_ASC_NODE>189.0388</RA_OF_ASC_NODE><ARG_OF_PERICENTER>245.6042</ARG_OF_PERICENTER><MEAN_ANOMALY>5.3331</MEAN_ANOMALY></meanElements><tleParameters><EPHEMERIS_TYPE>0</EPHEMERIS_TYPE><CLASSIFICATION_TYPE>U</CLASSIFICATION_TYPE><NORAD_CAT_ID>65952</NORAD_CAT_ID><ELEMENT_SET_NO>999</ELEMENT_SET_NO><REV_AT_EPOCH>197</REV_AT_EPOCH><BSTAR>-.44811E-1</BSTAR><MEAN_MOTION_DOT>-.1081893E-1</MEAN_MOTION_DOT><MEAN_MOTION_DDOT>0</MEAN_MOTION_DDOT></tleParameters></data></segment></body></omm>
<omm id="CCSDS_OMM_VERS" version="2.0">
<header><CREATION_DATE/><ORIGINATOR/></header><body><segment><metadata><OBJECT_NAME>KUIPER-00124</OBJECT_NAME><OBJECT_ID>2025-228G</OBJECT_ID><CENTER_NAME>EARTH</CENTER_NAME><REF_FRAME>TEME</REF_FRAME><TIME_SYSTEM>UTC</TIME_SYSTEM><MEAN_ELEMENT_THEORY>SGP4</MEAN_ELEMENT_THEORY></metadata><data><meanElements><EPOCH>2025-11-07T20:00:02.870784</EPOCH><MEAN_MOTION>15.34443835</MEAN_MOTION><ECCENTRICITY>.0005241</ECCENTRICITY><INCLINATION>51.8780</INCLINATION><RA_OF_ASC_NODE>188.8482</RA_OF_ASC_NODE><ARG_OF_PERICENTER>248.0330</ARG_OF_PERICENTER><MEAN_ANOMALY>112.0098</MEAN_ANOMALY></meanElements><tleParameters><EPHEMERIS_TYPE>0</EPHEMERIS_TYPE><CLASSIFICATION_TYPE>U</CLASSIFICATION_TYPE><NORAD_CAT_ID>65953</NORAD_CAT_ID><ELEMENT_SET_NO>999</ELEMENT_SET_NO><REV_AT_EPOCH>505</REV_AT_EPOCH><BSTAR>.84567E-3</BSTAR><MEAN_MOTION_DOT>.28379E-3</MEAN_MOTION_DOT><MEAN_MOTION_DDOT>0</MEAN_MOTION_DDOT></tleParameters></data></segment></body></omm>

</ndm>
